ADRAS-J                 
1 58992U 24034A   24174.53608273  .00003864  00000+0  36090-3 0  9999
2 58992  98.2117 147.7971 0044673  33.3837 327.0184 14.94056960 18660
